HULIANWANG DIGUI-107    
1 66917U 25285C   25365.36005422 -.00000035  00000+0  78967-4 0  9993
2 66917  50.0049  41.4922 0000199 230.6592 129.4292 13.98831709  3525
HULIANWANG DIGUI-108    
1 66918U 25285D   25365.35858777 -.00000050  00000+0  68105-4 0  9992
2 66918  50.0054  41.4885 0000322 353.1378   6.9520 13.99605219  3520
HULIANWANG DIGUI-109    
1 66919U 25285E   25365.64196547 -.00000016  00000+0  91829-4 0  9996
2 66919  50.0081  40.3292 0000253 283.9245  76.1629 13.99232785  3564
HULIANWANG DIGUI-110    
1 66920U 25285F   25365.64049841 -.00000157  00000+0 -50079-5 0  9992
2 66920  50.0113  40.3307 0000257 283.1425  76.9449 13.99711557  3562
HULIANWANG DIGUI-111    
1 66921U 25285G   25365.63928317 -.00000135  00000+0  10063-4 0  9999
2 66921  50.0128  40.3286 0000336 212.5036 147.5846 13.99793203  3561
HULIANWANG DIGUI-112    
1 66922U 25285H   25365.63778360  .00000105  00000+0  17356-3 0  9998
2 66922  50.0100  40.3104 0000270 258.0910 101.9962 13.99663797  3561
HULIANWANG DIGUI-113    
1 66923U 25285J   25365.63576101 -.00000060  00000+0  60887-4 0  9997
2 66923  50.0101  40.3018 0000309 252.1027 107.9842 14.00125665  3567
CZ-8A R/B               
1 66924U 25285K   25365.38287382  .00000215  00000+0  13405-3 0  9994
2 66924  50.0088  36.7963 0119201 172.4543 187.8202 14.30511247  3597
STARLINK-35945          
1 66925U 25286A   25365.58335648  .00003242  00000+0  66381-4 0  9992
2 66925  53.1591 317.5822 0001201  82.0272 152.1165 15.49287572  5014
STARLINK-35942          
1 66926U 25286B   25365.58335648 -.02064050  00000+0 -48973-1 0  9995
2 66926  53.1594 317.6677 0001509  81.9529 109.9047 15.44710961  5018
STARLINK-35943          
1 66927U 25286C   25365.16008705  .00096350  00000+0  17184-2 0  9996
2 66927  53.1596 319.6711 0001349  67.4879 292.6272 15.49320601  4888
STARLINK-35944          
1 66928U 25286D   25365.58335648 -.00097077  00000+0 -17568-2 0  9997
2 66928  53.1593 317.6539 0001228  96.2237 102.1802 15.49346145  5017
