CCSDS_OMM_VERS = 2.0
CREATION_DATE  = 
ORIGINATOR     = 

OBJECT_NAME    = HULIANWANG DIGUI-107
OBJECT_ID      = 2025-285C
CENTER_NAME    = EARTH
REF_FRAME      = TEME
TIME_SYSTEM    = UTC
MEAN_ELEMENT_THEORY = SGP/SGP4

EPOCH          = 2025-12-31T08:38:28.684608
MEAN_MOTION    = 13.98831709
ECCENTRICITY   = .00001998
INCLINATION    = 50.0049
RA_OF_ASC_NODE = 41.4922
ARG_OF_PERICENTER = 230.6592
MEAN_ANOMALY   = 129.4292

EPHEMERIS_TYPE = 0
CLASSIFICATION_TYPE = U
NORAD_CAT_ID   = 66917
ELEMENT_SET_NO = 999
REV_AT_EPOCH   = 352
BSTAR          = .78966752E-4
MEAN_MOTION_DOT = -.35E-6
MEAN_MOTION_DDOT = 0

CCSDS_OMM_VERS = 2.0
CREATION_DATE  = 
ORIGINATOR     = 

OBJECT_NAME    = HULIANWANG DIGUI-108
OBJECT_ID      = 2025-285D
CENTER_NAME    = EARTH
REF_FRAME      = TEME
TIME_SYSTEM    = UTC
MEAN_ELEMENT_THEORY = SGP/SGP4

EPOCH          = 2025-12-31T08:36:21.983328
MEAN_MOTION    = 13.99605219
ECCENTRICITY   = .00003224
INCLINATION    = 50.0054
RA_OF_ASC_NODE = 41.4885
ARG_OF_PERICENTER = 353.1378
MEAN_ANOMALY   = 6.9520

EPHEMERIS_TYPE = 0
CLASSIFICATION_TYPE = U
NORAD_CAT_ID   = 66918
ELEMENT_SET_NO = 999
REV_AT_EPOCH   = 352
BSTAR          = .68105042E-4
MEAN_MOTION_DOT = -.5E-6
MEAN_MOTION_DDOT = 0

CCSDS_OMM_VERS = 2.0
CREATION_DATE  = 
ORIGINATOR     = 

OBJECT_NAME    = HULIANWANG DIGUI-109
OBJECT_ID      = 2025-285E
CENTER_NAME    = EARTH
REF_FRAME      = TEME
TIME_SYSTEM    = UTC
MEAN_ELEMENT_THEORY = SGP/SGP4

EPOCH          = 2025-12-31T15:24:25.816608
MEAN_MOTION    = 13.99232785
ECCENTRICITY   = .00002535
INCLINATION    = 50.0081
RA_OF_ASC_NODE = 40.3292
ARG_OF_PERICENTER = 283.9245
MEAN_ANOMALY   = 76.1629

EPHEMERIS_TYPE = 0
CLASSIFICATION_TYPE = U
NORAD_CAT_ID   = 66919
ELEMENT_SET_NO = 999
REV_AT_EPOCH   = 356
BSTAR          = .91829237E-4
MEAN_MOTION_DOT = -.16E-6
MEAN_MOTION_DDOT = 0

CCSDS_OMM_VERS = 2.0
CREATION_DATE  = 
ORIGINATOR     = 

OBJECT_NAME    = HULIANWANG DIGUI-110
OBJECT_ID      = 2025-285F
CENTER_NAME    = EARTH
REF_FRAME      = TEME
TIME_SYSTEM    = UTC
MEAN_ELEMENT_THEORY = SGP/SGP4

EPOCH          = 2025-12-31T15:22:19.062624
MEAN_MOTION    = 13.99711557
ECCENTRICITY   = .00002572
INCLINATION    = 50.0113
RA_OF_ASC_NODE = 40.3307
ARG_OF_PERICENTER = 283.1425
MEAN_ANOMALY   = 76.9449

EPHEMERIS_TYPE = 0
CLASSIFICATION_TYPE = U
NORAD_CAT_ID   = 66920
ELEMENT_SET_NO = 999
REV_AT_EPOCH   = 356
BSTAR          = -.5007922E-5
MEAN_MOTION_DOT = -.157E-5
MEAN_MOTION_DDOT = 0

CCSDS_OMM_VERS = 2.0
CREATION_DATE  = 
ORIGINATOR     = 

OBJECT_NAME    = HULIANWANG DIGUI-111
OBJECT_ID      = 2025-285G
CENTER_NAME    = EARTH
REF_FRAME      = TEME
TIME_SYSTEM    = UTC
MEAN_ELEMENT_THEORY = SGP/SGP4

EPOCH          = 2025-12-31T15:20:34.065888
MEAN_MOTION    = 13.99793203
ECCENTRICITY   = .00003366
INCLINATION    = 50.0128
RA_OF_ASC_NODE = 40.3286
ARG_OF_PERICENTER = 212.5036
MEAN_ANOMALY   = 147.5846

EPHEMERIS_TYPE = 0
CLASSIFICATION_TYPE = U
NORAD_CAT_ID   = 66921
ELEMENT_SET_NO = 999
REV_AT_EPOCH   = 356
BSTAR          = .10063227E-4
MEAN_MOTION_DOT = -.135E-5
MEAN_MOTION_DDOT = 0

CCSDS_OMM_VERS = 2.0
CREATION_DATE  = 
ORIGINATOR     = 

OBJECT_NAME    = HULIANWANG DIGUI-112
OBJECT_ID      = 2025-285H
CENTER_NAME    = EARTH
REF_FRAME      = TEME
TIME_SYSTEM    = UTC
MEAN_ELEMENT_THEORY = SGP/SGP4

EPOCH          = 2025-12-31T15:18:24.503040
MEAN_MOTION    = 13.99663797
ECCENTRICITY   = .00002708
INCLINATION    = 50.0100
RA_OF_ASC_NODE = 40.3104
ARG_OF_PERICENTER = 258.0910
MEAN_ANOMALY   = 101.9962

EPHEMERIS_TYPE = 0
CLASSIFICATION_TYPE = U
NORAD_CAT_ID   = 66922
ELEMENT_SET_NO = 999
REV_AT_EPOCH   = 356
BSTAR          = .17356308E-3
MEAN_MOTION_DOT = .105E-5
MEAN_MOTION_DDOT = 0

CCSDS_OMM_VERS = 2.0
CREATION_DATE  = 
ORIGINATOR     = 

OBJECT_NAME    = HULIANWANG DIGUI-113
OBJECT_ID      = 2025-285J
CENTER_NAME    = EARTH
REF_FRAME      = TEME
TIME_SYSTEM    = UTC
MEAN_ELEMENT_THEORY = SGP/SGP4

EPOCH          = 2025-12-31T15:15:29.751264
MEAN_MOTION    = 14.00125665
ECCENTRICITY   = .00003092
INCLINATION    = 50.0101
RA_OF_ASC_NODE = 40.3018
ARG_OF_PERICENTER = 252.1027
MEAN_ANOMALY   = 107.9842

EPHEMERIS_TYPE = 0
CLASSIFICATION_TYPE = U
NORAD_CAT_ID   = 66923
ELEMENT_SET_NO = 999
REV_AT_EPOCH   = 356
BSTAR          = .60886523E-4
MEAN_MOTION_DOT = -.6E-6
MEAN_MOTION_DDOT = 0

CCSDS_OMM_VERS = 2.0
CREATION_DATE  = 
ORIGINATOR     = 

OBJECT_NAME    = CZ-8A R/B
OBJECT_ID      = 2025-285K
CENTER_NAME    = EARTH
REF_FRAME      = TEME
TIME_SYSTEM    = UTC
MEAN_ELEMENT_THEORY = SGP/SGP4

EPOCH          = 2025-12-31T09:11:20.298048
MEAN_MOTION    = 14.30511247
ECCENTRICITY   = .0119201
INCLINATION    = 50.0088
RA_OF_ASC_NODE = 36.7963
ARG_OF_PERICENTER = 172.4543
MEAN_ANOMALY   = 187.8202

EPHEMERIS_TYPE = 0
CLASSIFICATION_TYPE = U
NORAD_CAT_ID   = 66924
ELEMENT_SET_NO = 999
REV_AT_EPOCH   = 359
BSTAR          = .13405435E-3
MEAN_MOTION_DOT = .215E-5
MEAN_MOTION_DDOT = 0

CCSDS_OMM_VERS = 2.0
CREATION_DATE  = 
ORIGINATOR     = 

OBJECT_NAME    = STARLINK-35945
OBJECT_ID      = 2025-286A
CENTER_NAME    = EARTH
REF_FRAME      = TEME
TIME_SYSTEM    = UTC
MEAN_ELEMENT_THEORY = SGP/SGP4

EPOCH          = 2025-12-31T14:00:01.999872
MEAN_MOTION    = 15.49287572
ECCENTRICITY   = .00012013
INCLINATION    = 53.1591
RA_OF_ASC_NODE = 317.5822
ARG_OF_PERICENTER = 82.0272
MEAN_ANOMALY   = 152.1165

EPHEMERIS_TYPE = 0
CLASSIFICATION_TYPE = U
NORAD_CAT_ID   = 66925
ELEMENT_SET_NO = 999
REV_AT_EPOCH   = 501
BSTAR          = .66380637E-4
MEAN_MOTION_DOT = .3242E-4
MEAN_MOTION_DDOT = 0

CCSDS_OMM_VERS = 2.0
CREATION_DATE  = 
ORIGINATOR     = 

OBJECT_NAME    = STARLINK-35942
OBJECT_ID      = 2025-286B
CENTER_NAME    = EARTH
REF_FRAME      = TEME
TIME_SYSTEM    = UTC
MEAN_ELEMENT_THEORY = SGP/SGP4

EPOCH          = 2025-12-31T14:00:01.999872
MEAN_MOTION    = 15.44710961
ECCENTRICITY   = .00015095
INCLINATION    = 53.1594
RA_OF_ASC_NODE = 317.6677
ARG_OF_PERICENTER = 81.9529
MEAN_ANOMALY   = 109.9047

EPHEMERIS_TYPE = 0
CLASSIFICATION_TYPE = U
NORAD_CAT_ID   = 66926
ELEMENT_SET_NO = 999
REV_AT_EPOCH   = 501
BSTAR          = -.48973226E-1
MEAN_MOTION_DOT = -.206405E-1
MEAN_MOTION_DDOT = 0

CCSDS_OMM_VERS = 2.0
CREATION_DATE  = 
ORIGINATOR     = 

OBJECT_NAME    = STARLINK-35943
OBJECT_ID      = 2025-286C
CENTER_NAME    = EARTH
REF_FRAME      = TEME
TIME_SYSTEM    = UTC
MEAN_ELEMENT_THEORY = SGP/SGP4

EPOCH          = 2025-12-31T03:50:31.521120
MEAN_MOTION    = 15.49320601
ECCENTRICITY   = .0001349
INCLINATION    = 53.1596
RA_OF_ASC_NODE = 319.6711
ARG_OF_PERICENTER = 67.4879
MEAN_ANOMALY   = 292.6272

EPHEMERIS_TYPE = 0
CLASSIFICATION_TYPE = U
NORAD_CAT_ID   = 66927
ELEMENT_SET_NO = 999
REV_AT_EPOCH   = 488
BSTAR          = .17184E-2
MEAN_MOTION_DOT = .9635E-3
MEAN_MOTION_DDOT = 0

CCSDS_OMM_VERS = 2.0
CREATION_DATE  = 
ORIGINATOR     = 

OBJECT_NAME    = STARLINK-35944
OBJECT_ID      = 2025-286D
CENTER_NAME    = EARTH
REF_FRAME      = TEME
TIME_SYSTEM    = UTC
MEAN_ELEMENT_THEORY = SGP/SGP4

EPOCH          = 2025-12-31T14:00:01.999872
MEAN_MOTION    = 15.49346145
ECCENTRICITY   = .00012287
INCLINATION    = 53.1593
RA_OF_ASC_NODE = 317.6539
ARG_OF_PERICENTER = 96.2237
MEAN_ANOMALY   = 102.1802

EPHEMERIS_TYPE = 0
CLASSIFICATION_TYPE = U
NORAD_CAT_ID   = 66928
ELEMENT_SET_NO = 999
REV_AT_EPOCH   = 501
BSTAR          = -.17567845E-2
MEAN_MOTION_DOT = -.97077E-3
MEAN_MOTION_DDOT = 0

